OBJECT_NAME,OBJECT_ID,EPOCH,MEAN_MOTION,ECCENTRICITY,INCLINATION,RA_OF_ASC_NODE,ARG_OF_PERICENTER,MEAN_ANOMALY,EPHEMERIS_TYPE,CLASSIFICATION_TYPE,NORAD_CAT_ID,ELEMENT_SET_NO,REV_AT_EPOCH,BSTAR,MEAN_MOTION_DOT,MEAN_MOTION_DDOT
AVION KALUGA 650,2023-091AF,2026-06-27T11:52:48.463968,15.20458487,.0011799,97.5090,238.0296,78.3285,281.9273,0,U,57195,999,16559,.2651E-3,.5727E-4,0
HORS 2,2023-091AG,2026-06-27T11:37:08.728320,15.32143723,.0008651,97.5091,245.6549,56.6419,303.5649,0,U,57196,999,16610,.44642E-3,.138E-3,0
A-SEANSAT-PG1,2023-091AH,2026-06-27T11:48:38.930400,15.37305936,.0007502,97.5084,248.2948,53.4147,306.7786,0,U,57197,999,16629,.49633E-3,.18095E-3,0
SITRO-AIS 10 (BURDAEV),2023-091AK,2026-06-27T12:34:09.585120,15.38989724,.0006646,97.5085,249.3147,48.0830,312.0981,0,U,57199,999,16635,.47767E-3,.18388E-3,0
SITRO-AIS 9 (SHCHUKIN),2023-091AM,2026-06-27T11:43:18.777792,15.38489380,.0006881,97.5082,249.0003,48.5655,311.6180,0,U,57201,999,16633,.51E-3,.19324E-3,0
UTMN 2 (RS27S),2023-091AP,2026-06-27T12:14:49.062048,15.32296433,.0008575,97.5091,245.8752,52.3443,307.8575,0,U,57203,999,16612,.41219E-3,.12795E-3,0
SITRO-AIS 12 (SMIRENNIY),2023-091AQ,2026-06-27T11:26:58.855776,15.38783693,.0006413,97.5095,249.4624,43.0799,317.0947,0,U,57204,999,16635,.53769E-3,.20575E-3,0
SITRO-AIS 11 (SHEFFER),2023-091AU,2026-06-27T10:08:33.967968,15.39211644,.0006278,97.5094,249.6596,43.0500,317.1236,0,U,57208,999,16636,.5481E-3,.21272E-3,0
H2SAT (HEINRICH HERTZ),2023-093A,2026-06-25T07:28:10.234848,1.00269986,.0000848,0.0482,107.4304,17.0766,261.6799,0,U,57213,999,1099,0,.11E-6,0
KUZGTU 1 (RS47S),2023-091AV,2026-06-27T11:57:59.361408,15.30090538,.0011831,97.5067,243.0843,65.9825,294.2652,0,U,57217,999,16595,.42791E-3,.12416E-3,0
QIANKUN-1,2023-103B,2026-06-27T03:06:45.729216,16.07664039,.00350219,96.1495,222.2784,145.4250,214.9323,0,U,57422,999,16889,.37317592E-4,.32053E-3,.2105998E-5
FENGYUN 3F,2023-111A,2026-06-27T11:21:53.912160,14.19940730,.0001546,98.6834,248.2905,85.8250,274.3103,0,U,57490,999,15032,.42731E-4,.47E-6,0
HJ-2F,2023-116A,2026-06-27T12:08:46.523328,15.22462527,.0008681,97.3839,183.5453,19.9752,340.1823,0,U,57519,999,16032,.3432E-3,.7884E-4,0
XRISM,2023-137A,2026-06-27T11:39:15.293088,15.12550992,.0007786,31.0027,292.8899,67.5058,292.6405,0,U,57800,999,15442,.25418E-3,.4643E-4,0
METEOR-M2 4,2024-039A,2026-06-27T12:34:08.495616,14.22430506,.0007833,98.7014,137.6919,133.2656,226.9177,0,U,59051,999,12073,.17394E-4,-.5E-7,0
GRBBETA,2024-128C,2026-06-27T10:34:25.623840,15.06698062,.0039353,61.9879,180.2904,136.7646,223.6547,0,U,60237,999,10781,.23825E-3,.3398E-4,0
TRANSPORTER-11 OBJECT A,2024-149A,2026-06-27T11:12:19.434240,15.33069755,.0003798,97.3737,258.3649,161.8629,198.2750,0,U,60468,999,10363,.28886E-3,.9153E-4,0
WARATAH SEED-1,2024-149B,2026-06-27T05:00:07.904448,15.36188545,.00023412,97.3694,258.7931,155.1819,204.9538,0,U,60469,999,10365,.39599838E-3,.13894E-3,0
PHISAT 2,2024-149C,2026-06-27T04:15:04.466592,15.31191002,.0002029,97.3760,257.3380,154.2473,205.8870,0,U,60470,999,10352,.25333402E-3,.7556E-4,0
LEMUR-2-TOMATOKECHUP,2024-149D,2026-06-27T12:43:02.940960,15.36239523,.0002321,97.3805,260.6035,156.0649,204.0703,0,U,60471,999,10375,.30431E-3,.10671E-3,0
CONNECTA IOT-1,2024-149E,2026-06-27T11:20:54.063744,15.23616149,.0001151,97.3762,254.5905,184.3590,175.7638,0,U,60472,999,10336,.18663E-3,.4399E-4,0
LOPEN,2024-149F,2026-06-27T11:06:41.262048,15.39975442,.0001687,97.3785,261.9124,165.2071,194.9224,0,U,60473,999,10384,.40949E-3,.16255E-3,0
ROCK,2024-149G,2026-06-27T04:33:08.170560,15.39959445,.00019735,97.3780,261.6519,167.5776,192.5519,0,U,60474,999,10380,.41182346E-3,.1634E-3,0
CONNECTA IOT-3,2024-149H,2026-06-27T11:51:33.834240,15.23628224,.0002212,97.3738,254.3615,194.3375,165.7800,0,U,60475,999,10337,.18353E-3,.4326E-4,0
QUBE,2024-149J,2026-06-27T04:43:25.273920,15.47663610,.00025549,97.3783,264.8253,167.4703,192.6611,0,U,60476,999,10401,.57200452E-3,.29526E-3,0
WREN-1,2024-149L,2026-06-27T04:40:08.376960,15.41938533,.00040552,97.3771,262.4140,207.8580,152.2451,0,U,60478,999,10386,.56436621E-3,.2397E-3,0
TOMORROW-S1,2024-149M,2026-06-27T04:33:33.935904,15.32855865,.00025701,97.3756,258.6309,176.4150,183.7111,0,U,60479,999,10362,.26310984E-3,.8272E-4,0
FLOCK 4BE-18,2024-149N,2026-06-27T11:07:49.207008,15.42177845,.0003832,97.3734,262.3022,196.1916,163.9210,0,U,60480,999,10389,.43112E-3,.18423E-3,0
FLOCK 4BE-7,2024-149P,2026-06-27T11:32:59.956800,15.40724736,.0003018,97.3764,261.6396,196.4674,163.6475,0,U,60481,999,10383,.53619E-3,.21861E-3,0
