AVION KALUGA 650        
1 57195U 23091AF  26178.49500537  .00005727  00000+0  26510-3 0  9996
2 57195  97.5090 238.0296 0011799  78.3285 281.9273 15.20458487165591
HORS 2                  
1 57196U 23091AG  26178.48412880  .00013800  00000+0  44642-3 0  9996
2 57196  97.5091 245.6549 0008651  56.6419 303.5649 15.32143723166102
A-SEANSAT-PG1           
1 57197U 23091AH  26178.49211725  .00018095  00000+0  49633-3 0  9999
2 57197  97.5084 248.2948 0007502  53.4147 306.7786 15.37305936166292
SITRO-AIS 10 (BURDAEV)  
1 57199U 23091AK  26178.52372205  .00018388  00000+0  47767-3 0  9997
2 57199  97.5085 249.3147 0006646  48.0830 312.0981 15.38989724166353
SITRO-AIS 9 (SHCHUKIN)  
1 57201U 23091AM  26178.48841178  .00019324  00000+0  51000-3 0  9992
2 57201  97.5082 249.0003 0006881  48.5655 311.6180 15.38489380166330
UTMN 2 (RS27S)          
1 57203U 23091AP  26178.51029007  .00012795  00000+0  41219-3 0  9993
2 57203  97.5091 245.8752 0008575  52.3443 307.8575 15.32296433166128
SITRO-AIS 12 (SMIRENNIY)
1 57204U 23091AQ  26178.47707009  .00020575  00000+0  53769-3 0  9992
2 57204  97.5095 249.4624 0006413  43.0799 317.0947 15.38783693166357
SITRO-AIS 11 (SHEFFER)  
1 57208U 23091AU  26178.42261537  .00021272  00000+0  54810-3 0  9995
2 57208  97.5094 249.6596 0006278  43.0500 317.1236 15.39211644166365
H2SAT (HEINRICH HERTZ)  
1 57213U 23093A   26176.31122957  .00000011  00000+0  00000+0 0  9997
2 57213   0.0482 107.4304 0000848  17.0766 261.6799  1.00269986 10990
KUZGTU 1 (RS47S)        
1 57217U 23091AV  26178.49860372  .00012416  00000+0  42791-3 0  9999
2 57217  97.5067 243.0843 0011831  65.9825 294.2652 15.30090538165951
QIANKUN-1               
1 57422U 23103B   26178.12969594  .00032053  21060-5  37318-4 0  9991
2 57422  96.1495 222.2784 0035021 145.4250 214.9323 16.07664039168893
FENGYUN 3F              
1 57490U 23111A   26178.47354065  .00000047  00000+0  42731-4 0  9992
2 57490  98.6834 248.2905 0001546  85.8250 274.3103 14.19940730150328
HJ-2F                   
1 57519U 23116A   26178.50609402  .00007884  00000+0  34320-3 0  9991
2 57519  97.3839 183.5453 0008681  19.9752 340.1823 15.22462527160322
XRISM                   
1 57800U 23137A   26178.48559367  .00004643  00000+0  25418-3 0  9996
2 57800  31.0027 292.8899 0007786  67.5058 292.6405 15.12550992154424
METEOR-M2 4             
1 59051U 24039A   26178.52370944 -.00000005  00000+0  17394-4 0  9999
2 59051  98.7014 137.6919 0007833 133.2656 226.9177 14.22430506120738
GRBBETA                 
1 60237U 24128C   26178.44057435  .00003398  00000+0  23825-3 0  9996
2 60237  61.9879 180.2904 0039353 136.7646 223.6547 15.06698062107819
TRANSPORTER-11 OBJECT A 
1 60468U 24149A   26178.46689160  .00009153  00000+0  28886-3 0  9990
2 60468  97.3737 258.3649 0003798 161.8629 198.2750 15.33069755103638
WARATAH SEED-1          
1 60469U 24149B   26178.20842482  .00013894  00000+0  39600-3 0  9994
2 60469  97.3694 258.7931 0002341 155.1819 204.9538 15.36188545103652
PHISAT 2                
1 60470U 24149C   26178.17713503  .00007556  00000+0  25333-3 0  9999
2 60470  97.3760 257.3380 0002029 154.2473 205.8870 15.31191002103522
LEMUR-2-TOMATOKECHUP    
1 60471U 24149D   26178.52989515  .00010671  00000+0  30431-3 0  9994
2 60471  97.3805 260.6035 0002321 156.0649 204.0703 15.36239523103754
CONNECTA IOT-1          
1 60472U 24149E   26178.47284796  .00004399  00000+0  18663-3 0  9991
2 60472  97.3762 254.5905 0001151 184.3590 175.7638 15.23616149103361
LOPEN                   
1 60473U 24149F   26178.46297757  .00016255  00000+0  40949-3 0  9998
2 60473  97.3785 261.9124 0001687 165.2071 194.9224 15.39975442103846
ROCK                    
1 60474U 24149G   26178.18967790  .00016340  00000+0  41182-3 0  9994
2 60474  97.3780 261.6519 0001973 167.5776 192.5519 15.39959445103804
CONNECTA IOT-3          
1 60475U 24149H   26178.49414160  .00004326  00000+0  18353-3 0  9992
2 60475  97.3738 254.3615 0002212 194.3375 165.7800 15.23628224103372
QUBE                    
1 60476U 24149J   26178.19682030  .00029526  00000+0  57200-3 0  9996
2 60476  97.3783 264.8253 0002554 167.4703 192.6611 15.47663610104017
WREN-1                  
1 60478U 24149L   26178.19454140  .00023970  00000+0  56437-3 0  9995
2 60478  97.3771 262.4140 0004055 207.8580 152.2451 15.41938533103864
TOMORROW-S1             
1 60479U 24149M   26178.18997611  .00008272  00000+0  26311-3 0  9996
2 60479  97.3756 258.6309 0002570 176.4150 183.7111 15.32855865103628
FLOCK 4BE-18            
1 60480U 24149N   26178.46376397  .00018423  00000+0  43112-3 0  9998
2 60480  97.3734 262.3022 0003832 196.1916 163.9210 15.42177845103896
FLOCK 4BE-7             
1 60481U 24149P   26178.48124950  .00021861  00000+0  53619-3 0  9990
2 60481  97.3764 261.6396 0003018 196.4674 163.6475 15.40724736103835
